NORAD_CAT_ID,OBJECT_NAME,OBJECT_TYPE,EPOCH,MEAN_MOTION,ECCENTRICITY,INCLINATION,RA_OF_ASC_NODE,ARG_OF_PERICENTER,MEAN_ANOMALY,BSTAR,MEAN_MOTION_DOT,MEAN_MOTION_DDOT,TLE_LINE0,TLE_LINE1,TLE_LINE2,SEMIMAJOR_AXIS,PERIOD,APOGEE,PERIGEE,DECAYED
49409.0,STARLINK-3075,PAYLOAD,2023-08-29 17:41:59,15.08842388,0.0001193,53.2174,52.4145,96.59,263.5228,6.8163e-05,7.97e-06,0.0,0 STARLINK-3075,1 49409U 21104B   23241.73748915  .00000797  00000-0  68163-4 0  9991,2 49409  53.2174  52.4145 0001193  96.5900 263.5228 15.08842388100381,6917.873,95.437,540.563,538.913,0.0
49409.0,STARLINK-3075,PAYLOAD,2023-08-29 19:17:21,15.08845,0.0001214,53.2176,52.1165,98.522,261.5909,8.5288e-05,1.07e-05,0.0,0 STARLINK-3075,1 49409U 21104B   23241.80372675  .00001070  00000-0  85288-4 0  9997,2 49409  53.2176  52.1165 0001214  98.5220 261.5909 15.08845000 99311,6917.865,95.437,540.57,538.89,0.0
49409.0,STARLINK-3075,PAYLOAD,2023-08-30 17:32:45,15.08843876,0.000116,53.2182,47.9541,86.8708,273.2417,9.7322e-05,1.262e-05,0.0,0 STARLINK-3075,1 49409U 21104B   23242.73108724  .00001262  00000-0  97322-4 0  9997,2 49409  53.2182  47.9541 0001160  86.8708 273.2417 15.08843876 99457,6917.869,95.437,540.536,538.931,0.0
49409.0,STARLINK-3075,PAYLOAD,2023-08-31 06:15:51,15.08842033,0.0001253,53.2176,45.5754,93.7766,266.3369,8.2053e-05,1.018e-05,0.0,0 STARLINK-3075,1 49409U 21104B   23243.26100782  .00001018  00000-0  82053-4 0  9996,2 49409  53.2176  45.5754 0001253  93.7766 266.3369 15.08842033100618,6917.874,95.437,540.606,538.872,0.0
49409.0,STARLINK-3075,PAYLOAD,2023-08-31 12:37:23,15.08842451,0.0001384,53.2176,44.387,87.2586,272.8564,6.3346e-05,7.2e-06,0.0,0 STARLINK-3075,1 49409U 21104B   23243.52596839  .00000720  00000-0  63346-4 0  9990,2 49409  53.2176  44.3870 0001384  87.2586 272.8564 15.08842451 99572,6917.873,95.437,540.695,538.78,0.0
49409.0,STARLINK-3075,PAYLOAD,2023-09-01 10:52:48,15.08813581,0.0001368,53.2181,40.2293,63.1761,296.9371,0.00046471,7.11e-05,0.0,0 STARLINK-3075,1 49409U 21104B   23244.45333869  .00007110  00000-0  46471-3 0  9994,2 49409  53.2181  40.2293 0001368  63.1761 296.9371 15.08813581100794,6917.961,95.439,540.773,538.88,0.0
49409.0,STARLINK-3075,PAYLOAD,2023-09-01 17:14:20,15.08838751,0.0001178,53.2181,39.034,88.4876,271.6251,6.4645e-05,7.41e-06,0.0,0 STARLINK-3075,1 49409U 21104B   23244.71829121  .00000741  00000-0  64645-4 0  9991,2 49409  53.2181  39.0340 0001178  88.4876 271.6251 15.08838751100837,6917.884,95.438,540.564,538.934,0.0
49409.0,STARLINK-3075,PAYLOAD,2023-09-01 20:25:06,15.08842665,0.00012,53.2181,38.4387,90.1742,269.9388,4.3509e-05,4.05e-06,0.0,0 STARLINK-3075,1 49409U 21104B   23244.85076877  .00000405  00000-0  43509-4 0  9991,2 49409  53.2181  38.4387 0001200  90.1742 269.9388 15.08842665 99779,6917.872,95.437,540.567,538.907,0.0
49409.0,STARLINK-3075,PAYLOAD,2023-09-02 10:43:35,15.08834179,0.0001267,53.2179,35.7624,93.0155,267.0982,-9.3004e-06,-4.36e-06,0.0,0 STARLINK-3075,1 49409U 21104B   23245.44693650 -.00000436  00000-0 -93004-5 0  9993,2 49409  53.2179  35.7624 0001267  93.0155 267.0982 15.08834179100945,6917.898,95.438,540.64,538.887,0.0
49409.0,STARLINK-3075,PAYLOAD,2023-09-02 12:18:58,15.08837702,0.0001317,53.2176,35.4652,93.6376,266.4767,-5.1291e-05,-1.104e-05,0.0,0 STARLINK-3075,1 49409U 21104B   23245.51317529 -.00001104  00000-0 -51291-4 0  9993,2 49409  53.2176  35.4652 0001317  93.6376 266.4767 15.08837702 99875,6917.887,95.438,540.663,538.841,0.0
49409.0,STARLINK-3075,PAYLOAD,2023-09-02 17:05:07,15.08840935,0.0001168,53.2182,34.5746,84.6079,275.5046,5.1332e-05,5.29e-06,0.0,0 STARLINK-3075,1 49409U 21104B   23245.71189108  .00000529  00000-0  51332-4 0  9999,2 49409  53.2182  34.5746 0001168  84.6079 275.5046 15.08840935100988,6917.878,95.437,540.551,538.935,0.0
49409.0,STARLINK-3075,PAYLOAD,2023-09-03 12:09:44,15.08841974,0.0001175,53.2183,31.0058,88.2014,271.9112,0.00011374,1.523e-05,0.0,0 STARLINK-3075,1 49409U 21104B   23246.50677010  .00001523  00000-0  11374-3 0  9997,2 49409  53.2183  31.0058 0001175  88.2014 271.9112 15.08841974100027,6917.874,95.437,540.552,538.927,0.0
49409.0,STARLINK-3075,PAYLOAD,2023-09-04 02:28:13,15.08839409,0.0001096,53.219,28.3292,90.7551,269.3566,8.4098e-05,1.051e-05,0.0,0 STARLINK-3075,1 49409U 21104B   23247.10293154  .00001051  00000-0  84098-4 0  9997,2 49409  53.2190  28.3292 0001096  90.7551 269.3566 15.08839409101193,6917.882,95.438,540.505,538.989,0.0
49409.0,STARLINK-3075,PAYLOAD,2023-09-04 12:00:33,15.08825012,0.0001167,53.2187,26.5455,86.98,273.1326,-3.599e-07,-2.94e-06,0.0,0 STARLINK-3075,1 49409U 21104B   23247.50038516 -.00000294  00000-0 -35990-6 0  9999,2 49409  53.2187  26.5455 0001167  86.9800 273.1326 15.08825012100172,6917.926,95.439,540.599,538.984,0.0
49409.0,STARLINK-3075,PAYLOAD,2023-09-04 16:46:42,15.08831129,0.0001221,53.2182,25.6539,81.2051,278.9079,2.7206e-05,1.45e-06,0.0,0 STARLINK-3075,1 49409U 21104B   23247.69910165  .00000145  00000-0  27206-4 0  9990,2 49409  53.2182  25.6539 0001221  81.2051 278.9079 15.08831129101284,6917.908,95.438,540.617,538.928,0.0
49409.0,STARLINK-3075,PAYLOAD,2023-09-05 11:51:20,15.08833947,0.0001228,53.2186,22.084,92.6851,267.4282,-5.382e-06,-3.73e-06,0.0,0 STARLINK-3075,1 49409U 21104B   23248.49398297 -.00000373  00000-0 -53820-5 0  9992,2 49409  53.2186  22.0840 0001228  92.6851 267.4282 15.08833947100328,6917.899,95.438,540.613,538.914,0.0
49409.0,STARLINK-3075,PAYLOAD,2023-09-06 02:09:48,15.08835448,0.0001412,53.2191,19.4068,88.0424,272.073,9.067e-05,1.155e-05,0.0,0 STARLINK-3075,1 49409U 21104B   23249.09014109  .00001155  00000-0  90670-4 0  9996,2 49409  53.2191  19.4068 0001412  88.0424 272.0730 15.08835448101493,6917.894,95.438,540.736,538.782,0.0
49409.0,STARLINK-3075,PAYLOAD,2023-09-06 11:42:04,15.0891438,0.0001655,53.2188,17.624,72.1116,288.0057,-0.00078163,-0.00012732,0.0,0 STARLINK-3075,1 49409U 21104B   23249.48755110 -.00012732  00000-0 -78163-3 0  9990,2 49409  53.2188  17.6240 0001655  72.1116 288.0057 15.08914380100471,6917.653,95.433,540.663,538.373,0.0
49409.0,STARLINK-3075,PAYLOAD,2023-09-07 02:00:34,15.08849249,0.0001081,53.2189,14.9485,82.1312,277.9803,0.00018268,2.621e-05,0.0,0 STARLINK-3075,1 49409U 21104B   23250.08372877  .00002621  00000-0  18268-3 0  9997,2 49409  53.2189  14.9485 0001081  82.1312 277.9803 15.08849249101653,6917.852,95.437,540.465,538.969,0.0
49409.0,STARLINK-3075,PAYLOAD,2023-09-07 09:57:30,15.08835687,9.81e-05,53.2191,13.46,109.8197,250.2901,6.2012e-05,6.99e-06,0.0,0 STARLINK-3075,1 49409U 21104B   23250.41493890  .00000699  00000-0  62012-4 0  9993,2 49409  53.2191  13.4600 0000981 109.8197 250.2901 15.08835687100614,6917.894,95.438,540.437,539.08,0.0
49409.0,STARLINK-3075,PAYLOAD,2023-09-08 11:23:40,15.08841289,0.0001,53.2192,8.7039,80.617,279.4935,-5.6884e-05,-1.193e-05,0.0,0 STARLINK-3075,1 49409U 21104B   23251.47477990 -.00001193  00000-0 -56884-4 0  9995,2 49409  53.2192   8.7039 0001000  80.6170 279.4935 15.08841289101861,6917.876,95.437,540.433,539.05,0.0
49409.0,STARLINK-3075,PAYLOAD,2023-09-08 12:59:04,15.08841733,0.0001017,53.2192,8.4078,64.889,295.2208,-4.3623e-05,-9.82e-06,0.0,0 STARLINK-3075,1 49409U 21104B   23251.54101955 -.00000982  00000-0 -43623-4 0  9990,2 49409  53.2192   8.4078 0001017  64.8890 295.2208 15.08841733100785,6917.875,95.437,540.444,539.037,0.0
49409.0,STARLINK-3075,PAYLOAD,2023-09-08 17:45:13,15.08847967,0.0001022,53.219,7.5129,94.6279,265.483,-3.8995e-05,-9.08e-06,0.0,0 STARLINK-3075,1 49409U 21104B   23251.73973392 -.00000908  00000-0 -38995-4 0  9997,2 49409  53.2190   7.5129 0001022  94.6279 265.4830 15.08847967101908,6917.856,95.437,540.428,539.014,0.0
49409.0,STARLINK-3075,PAYLOAD,2023-09-09 11:14:28,15.08833532,9.94e-05,53.2194,4.244,87.0125,273.098,5.6521e-05,6.12e-06,0.0,0 STARLINK-3075,1 49409U 21104B   23252.46838162  .00000612  00000-0  56521-4 0  9998,2 49409  53.2194   4.2440 0000994  87.0125 273.0980 15.08833532102012,6917.9,95.438,540.453,539.078,0.0
49409.0,STARLINK-3075,PAYLOAD,2023-09-09 14:25:14,15.08838439,0.0001009,53.2193,3.6492,85.9262,274.1846,0.00010112,1.322e-05,0.0,0 STARLINK-3075,1 49409U 21104B   23252.60085840  .00001322  00000-0  10112-3 0  9995,2 49409  53.2193   3.6492 0001009  85.9262 274.1846 15.08838439100942,6917.885,95.438,540.448,539.052,0.0
49409.0,STARLINK-3075,PAYLOAD,2023-09-09 17:36:00,15.08842995,8.62e-05,53.22,3.0518,97.9718,262.1372,0.00011403,1.528e-05,0.0,0 STARLINK-3075,1 49409U 21104B   23252.73333422  .00001528  00000-0  11403-3 0  9993,2 49409  53.2200   3.0518 0000862  97.9718 262.1372 15.08842995102056,6917.871,95.437,540.333,539.14,0.0
49409.0,STARLINK-3075,PAYLOAD,2023-09-09 23:57:33,15.08836515,0.0001002,53.2194,1.8639,83.9865,276.1241,0.00010785,1.429e-05,0.0,0 STARLINK-3075,1 49409U 21104B   23252.99829921  .00001429  00000-0  10785-3 0  9997,2 49409  53.2194   1.8639 0001002  83.9865 276.1241 15.08836515102098,6917.891,95.438,540.449,539.063,0.0
49409.0,STARLINK-3075,PAYLOAD,2023-09-10 12:40:38,15.08840485,0.0001065,53.2189,359.4852,84.9943,275.1171,0.00013633,1.883e-05,0.0,0 STARLINK-3075,1 49409U 21104B   23253.52821778  .00001883  00000-0  13633-3 0  9998,2 49409  53.2189 359.4852 0001065  84.9943 275.1171 15.08840485101088,6917.879,95.438,540.481,539.007,0.0
49409.0,STARLINK-3075,PAYLOAD,2023-09-10 14:16:00,15.08844658,0.0001058,53.2189,359.1875,86.0459,274.0654,0.00017129,2.44e-05,0.0,0 STARLINK-3075,1 49409U 21104B   23253.59445460  .00002440  00000-0  17129-3 0  9999,2 49409  53.2189 359.1875 0001058  86.0459 274.0654 15.08844658102189,6917.866,95.437,540.463,538.999,0.0
49409.0,STARLINK-3075,PAYLOAD,2023-09-11 14:06:48,15.08839599,0.0001145,53.2195,354.7299,88.7607,271.3516,0.00010814,1.434e-05,0.0,0 STARLINK-3075,1 49409U 21104B   23254.58806189  .00001434  00000-0  10814-3 0  9994,2 49409  53.2195 354.7299 0001145  88.7607 271.3516 15.08839599101249,6917.882,95.438,540.539,538.955,0.0
